1 41549U 16030A   20354.26468859 -.00000040  00000-0  00000-0 0  9990
2 41549  56.1530 276.8833 0004865 324.7803  35.2185  1.70474344 28471